[{"OBJECT_NAME":"STARLINK-5981","OBJECT_ID":"2023-058J","EPOCH":"2026-03-09T22:14:54.545280","MEAN_MOTION":15.01258925,"ECCENTRICITY":0.00032383,"INCLINATION":97.6037,"RA_OF_ASC_NODE":70.4064,"ARG_OF_PERICENTER":76.6419,"MEAN_ANOMALY":283.5166,"EPHEMERIS_TYPE":0,"CLASSIFICATION_TYPE":"U","NORAD_CAT_ID":56325,"ELEMENT_SET_NO":999,"REV_AT_EPOCH":15816,"BSTAR":3.306275e-6,"MEAN_MOTION_DOT":-1.6e-7,"MEAN_MOTION_DDOT":0},{"OBJECT_NAME":"COSMOS 2228","OBJECT_ID":"1992-094A","EPOCH":"2026-03-09T22:06:22.986432","MEAN_MOTION":14.97191104,"ECCENTRICITY":0.00167811,"INCLINATION":82.5157,"RA_OF_ASC_NODE":237.0886,"ARG_OF_PERICENTER":303.9293,"MEAN_ANOMALY":56.0333,"EPHEMERIS_TYPE":0,"CLASSIFICATION_TYPE":"U","NORAD_CAT_ID":22286,"ELEMENT_SET_NO":999,"REV_AT_EPOCH":77609,"BSTAR":0.0002463535,"MEAN_MOTION_DOT":2.881e-5,"MEAN_MOTION_DDOT":0}]
